{"type": "FeatureCollection", "features": [ {"type": "Feature", "properties": {"norad_id": 44804, "name": "CARTOSAT-3", "group": "resource", "lat": -70.12026236930383, "lon": 78.62282475282369, "alt_km": 520.043816185118, "timestamp": "2025-12-23T22:42:32.635836+00:00", "meta": {"OBJECT_NAME": "CARTOSAT-3", "OBJECT_ID": "2019-081A", "EPOCH": "2025-12-23T07:12:57.410208", "MEAN_MOTION": 15.1923784, "ECCENTRICITY": 0.00136962, "INCLINATION": 97.4568, "RA_OF_ASC_NODE": 56.749, "ARG_OF_PERICENTER": 50.138, "MEAN_ANOMALY": 310.1057, "EPHEMERIS_TYPE": 0, "CLASSIFICATION_TYPE": "U", "NORAD_CAT_ID": 44804, "ELEMENT_SET_NO": 999, "REV_AT_EPOCH": 33676, "BSTAR": 0.00021799582, "MEAN_MOTION_DOT": 4.535e-05, "MEAN_MOTION_DDOT": 0}, "tle": {"line1": "1 44804U 19081A   25357.30066447  .00004535  00000+0  21800-3 0  9991", "line2": "2 44804  97.4568  56.7490 0013696  50.1380 310.1057 15.19237840336766"}}, "geometry": {"type": "Point", "coordinates": [78.62282475282369, -70.12026236930383]}}, {"type": "Feature", "properties": {"norad_id": 44819, "name": "GAOFEN-12 01", "group": "resource", "lat": -77.08755080724646, "lon": 40.721900609478105, "alt_km": 634.7409943055663, "timestamp": "2025-12-23T22:42:32.635846+00:00", "meta": {"OBJECT_NAME": "GAOFEN-12 01", "OBJECT_ID": "2019-082A", "EPOCH": "2025-12-23T06:50:59.399808", "MEAN_MOTION": 14.80668934, "ECCENTRICITY": 0.00020594, "INCLINATION": 97.8124, "RA_OF_ASC_NODE": 3.2896, "ARG_OF_PERICENTER": 184.8745, "MEAN_ANOMALY": 175.2447, "EPHEMERIS_TYPE": 0, "CLASSIFICATION_TYPE": "U", "NORAD_CAT_ID": 44819, "ELEMENT_SET_NO": 999, "REV_AT_EPOCH": 32806, "BSTAR": 6.5042652e-05, "MEAN_MOTION_DOT": 4.49e-06, "MEAN_MOTION_DDOT": 0}, "tle": {"line1": "1 44819U 19082A   25357.28540972  .00000449  00000+0  65043-4 0  9993", "line2": "2 44819  97.8124   3.2896 0002059 184.8745 175.2447 14.80668934328068"}}, "geometry": {"type": "Point", "coordinates": [40.721900609478105, -77.08755080724646]}}, {"type": "Feature", "properties": {"norad_id": 44873, "name": "CSG-1", "group": "resource", "lat": 82.00087360496784, "lon": 79.40284855838603, "alt_km": 614.0288055932087, "timestamp": "2025-12-23T22:42:32.635857+00:00", "meta": {"OBJECT_NAME": "CSG-1", "OBJECT_ID": "2019-092A", "EPOCH": "2025-12-23T09:20:11.779872", "MEAN_MOTION": 14.82157947, "ECCENTRICITY": 0.0001477, "INCLINATION": 97.881, "RA_OF_ASC_NODE": 178.5528, "ARG_OF_PERICENTER": 85.9747, "MEAN_ANOMALY": 274.1635, "EPHEMERIS_TYPE": 0, "CLASSIFICATION_TYPE": "U", "NORAD_CAT_ID": 44873, "ELEMENT_SET_NO": 999, "REV_AT_EPOCH": 32543, "BSTAR": 7.4681e-05, "MEAN_MOTION_DOT": 5.42e-06, "MEAN_MOTION_DDOT": 0}, "tle": {"line1": "1 44873U 19092A   25357.38902523  .00000542  00000+0  74681-4 0  9991", "line2": "2 44873  97.8810 178.5528 0001477  85.9747 274.1635 14.82157947325439"}}, "geometry": {"type": "Point", "coordinates": [79.40284855838603, 82.00087360496784]}}, {"type": "Feature", "properties": {"norad_id": 46277, "name": "NEMO-HD", "group": "resource", "lat": 75.5486822775241, "lon": 27.438980694595802, "alt_km": 436.6202775028096, "timestamp": "2025-12-23T22:42:32.635867+00:00", "meta": {"OBJECT_NAME": "NEMO-HD", "OBJECT_ID": "2020-061F", "EPOCH": "2025-12-23T06:47:06.215712", "MEAN_MOTION": 15.40533642, "ECCENTRICITY": 0.00012021, "INCLINATION": 97.2191, "RA_OF_ASC_NODE": 56.2468, "ARG_OF_PERICENTER": 52.2765, "MEAN_ANOMALY": 307.8591, "EPHEMERIS_TYPE": 0, "CLASSIFICATION_TYPE": "U", "NORAD_CAT_ID": 46277, "ELEMENT_SET_NO": 999, "REV_AT_EPOCH": 29486, "BSTAR": 0.00026332717, "MEAN_MOTION_DOT": 0.00010612, "MEAN_MOTION_DDOT": 0}, "tle": {"line1": "1 46277U 20061F   25357.28271083  .00010612  00000+0  26333-3 0  9997", "line2": "2 46277  97.2191  56.2468 0001202  52.2765 307.8591 15.40533642294865"}}, "geometry": {"type": "Point", "coordinates": [27.438980694595802, 75.5486822775241]}}, {"type": "Feature", "properties": {"norad_id": 46984, "name": "SENTINEL-6A", "group": "resource", "lat": -58.52334168665873, "lon": 92.45845881607472, "alt_km": 1338.411035387745, "timestamp": "2025-12-23T22:42:32.635877+00:00", "meta": {"OBJECT_NAME": "SENTINEL-6A", "OBJECT_ID": "2020-086A", "EPOCH": "2025-12-23T02:27:21.718944", "MEAN_MOTION": 12.80930775, "ECCENTRICITY": 0.00077428, "INCLINATION": 66.0397, "RA_OF_ASC_NODE": 140.7845, "ARG_OF_PERICENTER": 269.406, "MEAN_ANOMALY": 90.6068, "EPHEMERIS_TYPE": 0, "CLASSIFICATION_TYPE": "U", "NORAD_CAT_ID": 46984, "ELEMENT_SET_NO": 999, "REV_AT_EPOCH": 23777, "BSTAR": -4.1853643e-05, "MEAN_MOTION_DOT": -7.1e-07, "MEAN_MOTION_DDOT": 0}, "tle": {"line1": "1 46984U 20086A   25357.10233471 -.00000071  00000+0 -41854-4 0  9995", "line2": "2 46984  66.0397 140.7845 0007742 269.4060  90.6068 12.80930775237777"}}, "geometry": {"type": "Point", "coordinates": [92.45845881607472, -58.52334168665873]}}, {"type": "Feature", "properties": {"norad_id": 48079, "name": "GAOFEN-12 02", "group": "resource", "lat": -66.27330546094956, "lon": 10.524755784501616, "alt_km": 636.4609350613291, "timestamp": "2025-12-23T22:42:32.635887+00:00", "meta": {"OBJECT_NAME": "GAOFEN-12 02", "OBJECT_ID": "2021-026A", "EPOCH": "2025-12-23T06:47:43.424736", "MEAN_MOTION": 14.80687026, "ECCENTRICITY": 0.00035815, "INCLINATION": 97.9856, "RA_OF_ASC_NODE": 351.2389, "ARG_OF_PERICENTER": 80.0109, "MEAN_ANOMALY": 280.1507, "EPHEMERIS_TYPE": 0, "CLASSIFICATION_TYPE": "U", "NORAD_CAT_ID": 48079, "ELEMENT_SET_NO": 999, "REV_AT_EPOCH": 25573, "BSTAR": 6.7331092e-05, "MEAN_MOTION_DOT": 4.65e-06, "MEAN_MOTION_DDOT": 0}, "tle": {"line1": "1 48079U 21026A   25357.28314149  .00000465  00000+0  67331-4 0  9991", "line2": "2 48079  97.9856 351.2389 0003581  80.0109 280.1507 14.80687026255737"}}, "geometry": {"type": "Point", "coordinates": [10.524755784501616, -66.27330546094956]}}, {"type": "Feature", "properties": {"norad_id": 48268, "name": "PLEIADES NEO 3", "group": "resource", "lat": 38.7586205323517, "lon": 63.830551137144525, "alt_km": 620.6481359832378, "timestamp": "2025-12-23T22:42:32.635897+00:00", "meta": {"OBJECT_NAME": "PLEIADES NEO 3", "OBJECT_ID": "2021-034A", "EPOCH": "2025-12-23T09:33:59.352768", "MEAN_MOTION": 14.81670917, "ECCENTRICITY": 0.0001354, "INCLINATION": 97.8946, "RA_OF_ASC_NODE": 69.6869, "ARG_OF_PERICENTER": 98.0845, "MEAN_ANOMALY": 262.0521, "EPHEMERIS_TYPE": 0, "CLASSIFICATION_TYPE": "U", "NORAD_CAT_ID": 48268, "ELEMENT_SET_NO": 999, "REV_AT_EPOCH": 25162, "BSTAR": 1.0764e-05, "MEAN_MOTION_DOT": 3.3e-07, "MEAN_MOTION_DDOT": 0}, "tle": {"line1": "1 48268U 21034A   25357.39860362  .00000033  00000+0  10764-4 0  9994", "line2": "2 48268  97.8946  69.6869 0001354  98.0845 262.0521 14.81670917251622"}}, "geometry": {"type": "Point", "coordinates": [63.830551137144525, 38.7586205323517]}}, {"type": "Feature", "properties": {"norad_id": 49070, "name": "PLEIADES NEO 4", "group": "resource", "lat": -39.00675189177132, "lon": -116.23090272052721, "alt_km": 631.2481412427715, "timestamp": "2025-12-23T22:42:32.635906+00:00", "meta": {"OBJECT_NAME": "PLEIADES NEO 4", "OBJECT_ID": "2021-073E", "EPOCH": "2025-12-20T17:32:43.596096", "MEAN_MOTION": 14.81672155, "ECCENTRICITY": 0.00013181, "INCLINATION": 97.8951, "RA_OF_ASC_NODE": 67.0539, "ARG_OF_PERICENTER": 90.4145, "MEAN_ANOMALY": 269.7219, "EPHEMERIS_TYPE": 0, "CLASSIFICATION_TYPE": "U", "NORAD_CAT_ID": 49070, "ELEMENT_SET_NO": 999, "REV_AT_EPOCH": 23494, "BSTAR": -3.817265e-05, "MEAN_MOTION_DOT": -3.52e-06, "MEAN_MOTION_DDOT": 0}, "tle": {"line1": "1 49070U 21073E   25354.73106014 -.00000352  00000+0 -38173-4 0  9991", "line2": "2 49070  97.8951  67.0539 0001318  90.4145 269.7219 14.81672155234945"}}, "geometry": {"type": "Point", "coordinates": [-116.23090272052721, -39.00675189177132]}}, {"type": "Feature", "properties": {"norad_id": 49260, "name": "LANDSAT 9", "group": "resource", "lat": -33.19821093929458, "lon": 71.31349172993781, "alt_km": 709.1100476362826, "timestamp": "2025-12-23T22:42:32.635917+00:00", "meta": {"OBJECT_NAME": "LANDSAT 9", "OBJECT_ID": "2021-088A", "EPOCH": "2025-12-23T04:44:02.785344", "MEAN_MOTION": 14.57108265, "ECCENTRICITY": 0.00011091, "INCLINATION": 98.208, "RA_OF_ASC_NODE": 65.1561, "ARG_OF_PERICENTER": 92.7518, "MEAN_ANOMALY": 267.3807, "EPHEMERIS_TYPE": 0, "CLASSIFICATION_TYPE": "U", "NORAD_CAT_ID": 49260, "ELEMENT_SET_NO": 999, "REV_AT_EPOCH": 22537, "BSTAR": 0.00010313573, "MEAN_MOTION_DOT": 4.19e-06, "MEAN_MOTION_DDOT": 0}, "tle": {"line1": "1 49260U 21088A   25357.19725446  .00000419  00000+0  10314-3 0  9995", "line2": "2 49260  98.2080  65.1561 0001109  92.7518 267.3807 14.57108265225378"}}, "geometry": {"type": "Point", "coordinates": [71.31349172993781, -33.19821093929458]}}, {"type": "Feature", "properties": {"norad_id": 51444, "name": "CSG-2", "group": "resource", "lat": -82.0029512542294, "lon": -100.54923834896701, "alt_km": 630.9297553714596, "timestamp": "2025-12-23T22:42:32.635927+00:00", "meta": {"OBJECT_NAME": "CSG-2", "OBJECT_ID": "2022-008A", "EPOCH": "2025-12-23T06:54:22.245408", "MEAN_MOTION": 14.82154514, "ECCENTRICITY": 0.00015178, "INCLINATION": 97.8801, "RA_OF_ASC_NODE": 178.4515, "ARG_OF_PERICENTER": 82.5575, "MEAN_ANOMALY": 277.5811, "EPHEMERIS_TYPE": 0, "CLASSIFICATION_TYPE": "U", "NORAD_CAT_ID": 51444, "ELEMENT_SET_NO": 999, "REV_AT_EPOCH": 21053, "BSTAR": 7.1557244e-05, "MEAN_MOTION_DOT": 5.18e-06, "MEAN_MOTION_DDOT": 0}, "tle": {"line1": "1 51444U 22008A   25357.28775747  .00000518  00000+0  71557-4 0  9991", "line2": "2 51444  97.8801 178.4515 0001517  82.5575 277.5811 14.82154514210537"}}, "geometry": {"type": "Point", "coordinates": [-100.54923834896701, -82.0029512542294]}}]}